0 FENGYUN 1C DEB
1 30365U 99025ACC 13282.28484521  .00000406  00000-0  20099-3 0  6857
2 30365 098.9142 301.9669 0174534 260.3620 240.3013 14.15175536346519
0 FENGYUN 1C DEB
1 30365U 99025ACC 13283.75123606  .00000396  00000-0  19682-3 0  6869
2 30365 098.9139 303.4333 0174576 256.1693 151.0484 14.15176513346728
0 FENGYUN 1C DEB
1 30365U 99025ACC 13285.32062167  .00000313  00000-0  15974-3 0  6878
2 30365 098.9135 305.0027 0174662 251.6853 226.5174 14.15178157346940
0 FENGYUN 1C DEB
1 30365U 99025ACC 13286.87723616  .00000361  00000-0  18096-3 0  6884
2 30365 098.9132 306.5594 0174709 247.2419 236.9286 14.15179599347168
0 FENGYUN 1C DEB
1 30365U 99025ACC 13288.06758737  .00000542  00000-0  26127-3 0  6895
2 30365 098.9130 307.7496 0174739 243.8454 181.3612 14.15181384347334
0 FENGYUN 1C DEB
1 30365U 99025ACC 13289.35333672  .00000462  00000-0  22591-3 0  6909
2 30365 098.9128 309.0351 0174779 240.1717 251.8308 14.15182370347513
0 FENGYUN 1C DEB
1 30365U 99025ACC 13290.55950372  .00000492  00000-0  23907-3 0  6911
2 30365 098.9128 310.2410 0174837 236.7297 276.8522 14.15183693347684
0 FENGYUN 1C DEB
1 30365U 99025ACC 13291.74114650  .00000456  00000-0  22285-3 0  6923
2 30365 098.9127 311.4224 0174898 233.3612 176.9317 14.15185060347851
0 FENGYUN 1C DEB
1 30365U 99025ACC 13293.01440792  .00000431  00000-0  21183-3 0  6934
2 30365 098.9128 312.6952 0174953 229.7313 183.7820 14.15186756348031
0 FENGYUN 1C DEB
1 30365U 99025ACC 13294.30225777  .00000444  00000-0  21735-3 0  6949
2 30365 098.9130 313.9825 0175000 226.0597 264.9661 14.15188231348210
0 FENGYUN 1C DEB
1 30365U 99025ACC 13295.92613666  .00000570  00000-0  27318-3 0  6950
2 30365 098.9129 315.6060 0175070 221.4321 258.1236 14.15188825348446
